[
  {
    "zipcode": "10462",
    "region": "NYC",
    "borough": "Bronx",
    "two_months_ago": "334",
    "three_months_ago": "1",
    "num_increase": "333",
    "percent_increase": "33300"
  },
  {
    "zipcode": "10039",
    "region": "NYC",
    "borough": "Manhattan",
    "two_months_ago": "125",
    "three_months_ago": "1",
    "num_increase": "124",
    "percent_increase": "12400"
  },
  {
    "zipcode": "11230",
    "region": "NYC",
    "borough": "Brooklyn",
    "two_months_ago": "64",
    "three_months_ago": "1",
    "num_increase": "63",
    "percent_increase": "6300"
  },
  {
    "zipcode": "11375",
    "region": "NYC",
    "borough": "Queens",
    "two_months_ago": "41",
    "three_months_ago": "1",
    "num_increase": "40",
    "percent_increase": "4000"
  },
  {
    "zipcode": "11421",
    "region": "NYC",
    "borough": "Queens",
    "two_months_ago": "28",
    "three_months_ago": "1",
    "num_increase": "27",
    "percent_increase": "2700"
  },
  {
    "zipcode": "13202",
    "region": "Outside NYC",
    "borough": "Outside NYC",
    "two_months_ago": "42",
    "three_months_ago": "2",
    "num_increase": "40",
    "percent_increase": "2000"
  },
  {
    "zipcode": "11428",
    "region": "NYC",
    "borough": "Queens",
    "two_months_ago": "9",
    "three_months_ago": "1",
    "num_increase": "8",
    "percent_increase": "800"
  },
  {
    "zipcode": "11703",
    "region": "Outside NYC",
    "borough": "Outside NYC",
    "two_months_ago": "9",
    "three_months_ago": "1",
    "num_increase": "8",
    "percent_increase": "800"
  },
  {
    "zipcode": "14227",
    "region": "Outside NYC",
    "borough": "Outside NYC",
    "two_months_ago": "58",
    "three_months_ago": "7",
    "num_increase": "51",
    "percent_increase": "729"
  },
  {
    "zipcode": "10463",
    "region": "NYC",
    "borough": "Bronx",
    "two_months_ago": "90",
    "three_months_ago": "12",
    "num_increase": "78",
    "percent_increase": "650"
  }
]