[
  {
    "zipcode": "10030",
    "region": "NYC",
    "borough": "Manhattan",
    "two_months_ago": "65",
    "three_months_ago": "1",
    "num_increase": "64",
    "percent_increase": "6400"
  },
  {
    "zipcode": "10022",
    "region": "NYC",
    "borough": "Manhattan",
    "two_months_ago": "45",
    "three_months_ago": "1",
    "num_increase": "44",
    "percent_increase": "4400"
  },
  {
    "zipcode": "10469",
    "region": "NYC",
    "borough": "Bronx",
    "two_months_ago": "76",
    "three_months_ago": "2",
    "num_increase": "74",
    "percent_increase": "3700"
  },
  {
    "zipcode": "11221",
    "region": "NYC",
    "borough": "Brooklyn",
    "two_months_ago": "37",
    "three_months_ago": "1",
    "num_increase": "36",
    "percent_increase": "3600"
  },
  {
    "zipcode": "11375",
    "region": "NYC",
    "borough": "Queens",
    "two_months_ago": "36",
    "three_months_ago": "1",
    "num_increase": "35",
    "percent_increase": "3500"
  },
  {
    "zipcode": "11105",
    "region": "NYC",
    "borough": "Queens",
    "two_months_ago": "31",
    "three_months_ago": "1",
    "num_increase": "30",
    "percent_increase": "3000"
  },
  {
    "zipcode": "10012",
    "region": "NYC",
    "borough": "Manhattan",
    "two_months_ago": "17",
    "three_months_ago": "1",
    "num_increase": "16",
    "percent_increase": "1600"
  },
  {
    "zipcode": "10044",
    "region": "NYC",
    "borough": "Manhattan",
    "two_months_ago": "23",
    "three_months_ago": "2",
    "num_increase": "21",
    "percent_increase": "1050"
  },
  {
    "zipcode": "10463",
    "region": "NYC",
    "borough": "Bronx",
    "two_months_ago": "161",
    "three_months_ago": "15",
    "num_increase": "146",
    "percent_increase": "973"
  },
  {
    "zipcode": "11980",
    "region": "Outside NYC",
    "borough": "Outside NYC",
    "two_months_ago": "10",
    "three_months_ago": "1",
    "num_increase": "9",
    "percent_increase": "900"
  }
]